[
    {
        "Altitude(m)": 605470.763227342,
        "Argument of Periapsis(deg)": 0.0,
        "Eccentricity": 0.0,
        "Inclination(deg)": 60.0,
        "Latitude(deg)": 27.988119224085864,
        "Longitude(deg)": -167.73700345324815,
        "Mean Anomaly(deg)": 147.2727,
        "RAAN(deg)": 130.0,
        "Satellite Name": "Test1 581",
        "Satellite Number": 581,
        "Semi-Major Axis(m)": 6980739.136638005,
        "Time(s)": 0
    },
    {
        "Altitude(m)": 605395.8012643405,
        "Argument of Periapsis(deg)": 0.00010418945913296404,
        "Eccentricity": 0.0,
        "Inclination(deg)": 60.0,
        "Latitude(deg)": 27.473809334689303,
        "Longitude(deg)": -167.3838170189905,
        "Mean Anomaly(deg)": 147.89280614546186,
        "RAAN(deg)": 129.99957995086024,
        "Satellite Name": "Test1 581",
        "Satellite Number": 581,
        "Semi-Major Axis(m)": 6980739.136638005,
        "Time(s)": 10
    },
    {
        "Altitude(m)": 605322.6419766862,
        "Argument of Periapsis(deg)": 0.0002083789182659281,
        "Eccentricity": 0.0,
        "Inclination(deg)": 60.0,
        "Latitude(deg)": 26.958353659032838,
        "Longitude(deg)": -167.03427877192553,
        "Mean Anomaly(deg)": 148.51291229092368,
        "RAAN(deg)": 129.9991599017205,
        "Satellite Name": "Test1 581",
        "Satellite Number": 581,
        "Semi-Major Axis(m)": 6980739.136638005,
        "Time(s)": 20
    },
    {
        "Altitude(m)": 605251.341038825,
        "Argument of Periapsis(deg)": 0.00031256837739889213,
        "Eccentricity": 0.0,
        "Inclination(deg)": 60.0,
        "Latitude(deg)": 26.44178669926276,
        "Longitude(deg)": -166.68828406255588,
        "Mean Anomaly(deg)": 149.13301843638547,
        "RAAN(deg)": 129.99873985258077,
        "Satellite Name": "Test1 581",
        "Satellite Number": 581,
        "Semi-Major Axis(m)": 6980739.136638005,
        "Time(s)": 30
    },
    {
        "Altitude(m)": 605181.9533972517,
        "Argument of Periapsis(deg)": 0.0004167578365318562,
        "Eccentricity": 0.0,
        "Inclination(deg)": 60.0,
        "Latitude(deg)": 25.924142103236086,
        "Longitude(deg)": -166.34572997386323,
        "Mean Anomaly(deg)": 149.75312458184732,
        "RAAN(deg)": 129.99831980344103,
        "Satellite Name": "Test1 581",
        "Satellite Number": 581,
        "Semi-Major Axis(m)": 6980739.136638005,
        "Time(s)": 40
    },
    {
        "Altitude(m)": 605114.5332415788,
        "Argument of Periapsis(deg)": 0.0005209472956648203,
        "Eccentricity": 0.0,
        "Inclination(deg)": 60.0,
        "Latitude(deg)": 25.405452697076427,
        "Longitude(deg)": -166.00651626518493,
        "Mean Anomaly(deg)": 150.37323072730916,
        "RAAN(deg)": 129.99789975430127,
        "Satellite Name": "Test1 581",
        "Satellite Number": 581,
        "Semi-Major Axis(m)": 6980739.136638005,
        "Time(s)": 50
    },
    {
        "Altitude(m)": 605049.1339758964,
        "Argument of Periapsis(deg)": 0.0006251367547977843,
        "Eccentricity": 0.0,
        "Inclination(deg)": 60.0,
        "Latitude(deg)": 24.88575051661041,
        "Longitude(deg)": -165.67054480401612,
        "Mean Anomaly(deg)": 150.99333687277098,
        "RAAN(deg)": 129.99747970516154,
        "Satellite Name": "Test1 581",
        "Satellite Number": 581,
        "Semi-Major Axis(m)": 6980739.136638005,
        "Time(s)": 60
    },
    {
        "Altitude(m)": 604985.8081905136,
        "Argument of Periapsis(deg)": 0.0007293262139307483,
        "Eccentricity": 0.0,
        "Inclination(deg)": 60.0,
        "Latitude(deg)": 24.36506683772735,
        "Longitude(deg)": -165.33771899866935,
        "Mean Anomaly(deg)": 151.61344301823277,
        "RAAN(deg)": 129.9970596560218,
        "Satellite Name": "Test1 581",
        "Satellite Number": 581,
        "Semi-Major Axis(m)": 6980739.136638005,
        "Time(s)": 70
    },
    {
        "Altitude(m)": 604924.6076340198,
        "Argument of Periapsis(deg)": 0.0008335156730637124,
        "Eccentricity": 0.0,
        "Inclination(deg)": 60.0,
        "Latitude(deg)": 23.843432205702,
        "Longitude(deg)": -165.00794474471158,
        "Mean Anomaly(deg)": 152.23354916369462,
        "RAAN(deg)": 129.99663960688207,
        "Satellite Name": "Test1 581",
        "Satellite Number": 581,
        "Semi-Major Axis(m)": 6980739.136638005,
        "Time(s)": 80
    },
    {
        "Altitude(m)": 604865.5831857583,
        "Argument of Periapsis(deg)": 0.0009377051321966765,
        "Eccentricity": 0.0,
        "Inclination(deg)": 60.0,
        "Latitude(deg)": 23.32087646351362,
        "Longitude(deg)": -164.68112985947496,
        "Mean Anomaly(deg)": 152.85365530915647,
        "RAAN(deg)": 129.9962195577423,
        "Satellite Name": "Test1 581",
        "Satellite Number": 581,
        "Semi-Major Axis(m)": 6980739.136638005,
        "Time(s)": 90
    },
    {
        "Altitude(m)": 604808.7848286383,
        "Argument of Periapsis(deg)": 0.0010418945913296407,
        "Eccentricity": 0.0,
        "Inclination(deg)": 60.0,
        "Latitude(deg)": 22.797428779199603,
        "Longitude(deg)": -164.35718351754124,
        "Mean Anomaly(deg)": 153.47376145461828,
        "RAAN(deg)": 129.9957995086026,
        "Satellite Name": "Test1 581",
        "Satellite Number": 581,
        "Semi-Major Axis(m)": 6980739.136638005,
        "Time(s)": 100
    },
    {
        "Altitude(m)": 604754.2616223788,
        "Argument of Periapsis(deg)": 0.0011460840504626045,
        "Eccentricity": 0.0,
        "Inclination(deg)": 60.0,
        "Latitude(deg)": 22.27311767228296,
        "Longitude(deg)": -164.03601720010172,
        "Mean Anomaly(deg)": 154.09386760008013,
        "RAAN(deg)": 129.99537945946284,
        "Satellite Name": "Test1 581",
        "Satellite Number": 581,
        "Semi-Major Axis(m)": 6980739.136638005,
        "Time(s)": 110
    },
    {
        "Altitude(m)": 604702.0616771715,
        "Argument of Periapsis(deg)": 0.0012502735095955685,
        "Eccentricity": 0.0,
        "Inclination(deg)": 60.0,
        "Latitude(deg)": 21.747971039303323,
        "Longitude(deg)": -163.71754413246026,
        "Mean Anomaly(deg)": 154.71397374554198,
        "RAAN(deg)": 129.9949594103231,
        "Satellite Name": "Test1 581",
        "Satellite Number": 581,
        "Semi-Major Axis(m)": 6980739.136638005,
        "Time(s)": 120
    },
    {
        "Altitude(m)": 604652.2321277502,
        "Argument of Periapsis(deg)": 0.0013544629687285324,
        "Eccentricity": 0.0,
        "Inclination(deg)": 60.0,
        "Latitude(deg)": 21.222016178487475,
        "Longitude(deg)": -163.40167872256706,
        "Mean Anomaly(deg)": 155.33407989100377,
        "RAAN(deg)": 129.99453936118334,
        "Satellite Name": "Test1 581",
        "Satellite Number": 581,
        "Semi-Major Axis(m)": 6980739.136638005,
        "Time(s)": 130
    },
    {
        "Altitude(m)": 604604.8191079071,
        "Argument of Periapsis(deg)": 0.0014586524278614966,
        "Eccentricity": 0.0,
        "Inclination(deg)": 60.0,
        "Latitude(deg)": 20.69527981359712,
        "Longitude(deg)": -163.0883375134602,
        "Mean Anomaly(deg)": 155.95418603646564,
        "RAAN(deg)": 129.99411931204364,
        "Satellite Name": "Test1 581",
        "Satellite Number": 581,
        "Semi-Major Axis(m)": 6980739.136638005,
        "Time(s)": 140
    },
    {
        "Altitude(m)": 604559.8677254912,
        "Argument of Periapsis(deg)": 0.0015628418869944607,
        "Eccentricity": 0.0,
        "Inclination(deg)": 60.0,
        "Latitude(deg)": 20.167788116979402,
        "Longitude(deg)": -162.7774386238727,
        "Mean Anomaly(deg)": 156.57429218192746,
        "RAAN(deg)": 129.99369926290387,
        "Satellite Name": "Test1 581",
        "Satellite Number": 581,
        "Semi-Major Axis(m)": 6980739.136638005,
        "Time(s)": 150
    },
    {
        "Altitude(m)": 604517.4220378394,
        "Argument of Periapsis(deg)": 0.0016670313461274247,
        "Eccentricity": 0.0,
        "Inclination(deg)": 60.0,
        "Latitude(deg)": 19.639566731854742,
        "Longitude(deg)": -162.4689011898741,
        "Mean Anomaly(deg)": 157.19439832738928,
        "RAAN(deg)": 129.99327921376414,
        "Satellite Name": "Test1 581",
        "Satellite Number": 581,
        "Semi-Major Axis(m)": 6980739.136638005,
        "Time(s)": 160
    },
    {
        "Altitude(m)": 604477.5250277276,
        "Argument of Periapsis(deg)": 0.0017712208052603888,
        "Eccentricity": 0.0,
        "Inclination(deg)": 60.0,
        "Latitude(deg)": 19.11064079387675,
        "Longitude(deg)": -162.16264632041458,
        "Mean Anomaly(deg)": 157.8145044728511,
        "RAAN(deg)": 129.99285916462438,
        "Satellite Name": "Test1 581",
        "Satellite Number": 581,
        "Semi-Major Axis(m)": 6980739.136638005,
        "Time(s)": 170
    },
    {
        "Altitude(m)": 604440.2185797811,
        "Argument of Periapsis(deg)": 0.001875410264393353,
        "Eccentricity": 0.0,
        "Inclination(deg)": 60.0,
        "Latitude(deg)": 18.58103495198681,
        "Longitude(deg)": -161.85859654101571,
        "Mean Anomaly(deg)": 158.43461061831292,
        "RAAN(deg)": 129.99243911548467,
        "Satellite Name": "Test1 581",
        "Satellite Number": 581,
        "Semi-Major Axis(m)": 6980739.136638005,
        "Time(s)": 180
    },
    {
        "Altitude(m)": 604405.5434574324,
        "Argument of Periapsis(deg)": 0.0019795997235263173,
        "Eccentricity": 0.0,
        "Inclination(deg)": 60.0,
        "Latitude(deg)": 18.05077338859642,
        "Longitude(deg)": -161.5566752384679,
        "Mean Anomaly(deg)": 159.05471676377476,
        "RAAN(deg)": 129.99201906634488,
        "Satellite Name": "Test1 581",
        "Satellite Number": 581,
        "Semi-Major Axis(m)": 6980739.136638005,
        "Time(s)": 190
    }
]